{
  "type": "FeatureCollection",
  "features": [
    {
      "type": "Feature",
      "properties": {
        "norad_id": 28051,
        "name": "IRS-P6 (RESOURCESAT-1)",
        "group": "resource",
        "lat": -20.74949219957995,
        "lon": 27.654336268334394,
        "alt_km": 816.2757275928261,
        "timestamp": "2025-12-09T23:33:23.505599+00:00",
        "meta_object_name": "IRS-P6 (RESOURCESAT-1)",
        "meta_object_id": "2003-046A",
        "meta_epoch": "2025-12-09T15:49:32.230848",
        "meta_mean_motion": 14.36073498,
        "meta_eccentricity": 0.00638937,
        "meta_inclination": 98.2175,
        "meta_ra_of_asc_node": 24.2088,
        "meta_arg_of_pericenter": 189.948,
        "meta_mean_anomaly": 284.4682,
        "meta_ephemeris_type": 0,
        "meta_classification_type": "U",
        "meta_norad_cat_id": 28051,
        "meta_element_set_no": 999,
        "meta_rev_at_epoch": 15332,
        "meta_bstar": 0.00017684976,
        "meta_mean_motion_dot": 4.86e-06,
        "meta_mean_motion_ddot": 0,
        "tle_line1": "1 28051U 03046A   25343.65940082  .00000486  00000+0  17685-3 0  9997",
        "tle_line2": "2 28051  98.2175  24.2088 0063893 189.9480 284.4682 14.36073498153325"
      },
      "geometry": {
        "type": "Point",
        "coordinates": [
          27.654336268334394,
          -20.74949219957995
        ]
      }
    },
    {
      "type": "Feature",
      "properties": {
        "norad_id": 28220,
        "name": "SHIYAN-1 (SY-1)",
        "group": "resource",
        "lat": 19.79229810516161,
        "lon": 42.49502297612216,
        "alt_km": 478.99301796983764,
        "timestamp": "2025-12-09T23:33:23.505611+00:00",
        "meta_object_name": "SHIYAN-1 (SY-1)",
        "meta_object_id": "2004-012A",
        "meta_epoch": "2025-12-09T10:53:45.983616",
        "meta_mean_motion": 15.28007061,
        "meta_eccentricity": 0.00058493,
        "meta_inclination": 97.8933,
        "meta_ra_of_asc_node": 44.7984,
        "meta_arg_of_pericenter": 338.3085,
        "meta_mean_anomaly": 21.7905,
        "meta_ephemeris_type": 0,
        "meta_classification_type": "U",
        "meta_norad_cat_id": 28220,
        "meta_element_set_no": 999,
        "meta_rev_at_epoch": 18206,
        "meta_bstar": 0.00068257487,
        "meta_mean_motion_dot": 0.00018604,
        "meta_mean_motion_ddot": 0,
        "tle_line1": "1 28220U 04012A   25343.45400444  .00018604  00000+0  68257-3 0  9992",
        "tle_line2": "2 28220  97.8933  44.7984 0005849 338.3085  21.7905 15.28007061182068"
      },
      "geometry": {
        "type": "Point",
        "coordinates": [
          42.49502297612216,
          19.79229810516161
        ]
      }
    },
    {
      "type": "Feature",
      "properties": {
        "norad_id": 28376,
        "name": "AURA",
        "group": "resource",
        "lat": -1.123532824092052,
        "lon": -65.64023244610289,
        "alt_km": 693.3274272099561,
        "timestamp": "2025-12-09T23:33:23.505623+00:00",
        "meta_object_name": "AURA",
        "meta_object_id": "2004-026A",
        "meta_epoch": "2025-12-09T13:41:57.063840",
        "meta_mean_motion": 14.60935648,
        "meta_eccentricity": 0.00011835,
        "meta_inclination": 98.3181,
        "meta_ra_of_asc_node": 293.7828,
        "meta_arg_of_pericenter": 93.6902,
        "meta_mean_anomaly": 266.4433,
        "meta_ephemeris_type": 0,
        "meta_classification_type": "U",
        "meta_norad_cat_id": 28376,
        "meta_element_set_no": 999,
        "meta_rev_at_epoch": 13852,
        "meta_bstar": 0.00040300469,
        "meta_mean_motion_dot": 1.926e-05,
        "meta_mean_motion_ddot": 0,
        "tle_line1": "1 28376U 04026A   25343.57079935  .00001926  00000+0  40300-3 0  9997",
        "tle_line2": "2 28376  98.3181 293.7828 0001183  93.6902 266.4433 14.60935648138522"
      },
      "geometry": {
        "type": "Point",
        "coordinates": [
          -65.64023244610289,
          -1.123532824092052
        ]
      }
    },
    {
      "type": "Feature",
      "properties": {
        "norad_id": 28649,
        "name": "IRS-P5 (CARTOSAT-1)",
        "group": "resource",
        "lat": -77.44060592642712,
        "lon": 47.051874264849154,
        "alt_km": 604.6374001878567,
        "timestamp": "2025-12-09T23:33:23.505634+00:00",
        "meta_object_name": "IRS-P5 (CARTOSAT-1)",
        "meta_object_id": "2005-017A",
        "meta_epoch": "2025-12-09T12:38:07.937664",
        "meta_mean_motion": 14.90388486,
        "meta_eccentricity": 0.00014229,
        "meta_inclination": 97.5497,
        "meta_ra_of_asc_node": 10.0821,
        "meta_arg_of_pericenter": 46.8358,
        "meta_mean_anomaly": 313.2979,
        "meta_ephemeris_type": 0,
        "meta_classification_type": "U",
        "meta_norad_cat_id": 28649,
        "meta_element_set_no": 999,
        "meta_rev_at_epoch": 11556,
        "meta_bstar": 0.00024802754,
        "meta_mean_motion_dot": 2.362e-05,
        "meta_mean_motion_ddot": 0,
        "tle_line1": "1 28649U 05017A   25343.52648076  .00002362  00000+0  24803-3 0  9999",
        "tle_line2": "2 28649  97.5497  10.0821 0001422  46.8358 313.2979 14.90388486115560"
      },
      "geometry": {
        "type": "Point",
        "coordinates": [
          47.051874264849154,
          -77.44060592642712
        ]
      }
    },
    {
      "type": "Feature",
      "properties": {
        "norad_id": 28893,
        "name": "SINAH 1",
        "group": "resource",
        "lat": 4.295598442972404,
        "lon": -66.84348699885992,
        "alt_km": 673.5815080261318,
        "timestamp": "2025-12-09T23:33:23.505646+00:00",
        "meta_object_name": "SINAH 1",
        "meta_object_id": "2005-043D",
        "meta_epoch": "2025-12-09T14:33:22.411296",
        "meta_mean_motion": 14.63957482,
        "meta_eccentricity": 0.00151902,
        "meta_inclination": 98.2602,
        "meta_ra_of_asc_node": 112.1554,
        "meta_arg_of_pericenter": 146.2875,
        "meta_mean_anomaly": 213.9296,
        "meta_ephemeris_type": 0,
        "meta_classification_type": "U",
        "meta_norad_cat_id": 28893,
        "meta_element_set_no": 999,
        "meta_rev_at_epoch": 7278,
        "meta_bstar": 0.00018583277,
        "meta_mean_motion_dot": 9.25e-06,
        "meta_mean_motion_ddot": 0,
        "tle_line1": "1 28893U 05043D   25343.60650939  .00000925  00000+0  18583-3 0  9990",
        "tle_line2": "2 28893  98.2602 112.1554 0015190 146.2875 213.9296 14.63957482 72782"
      },
      "geometry": {
        "type": "Point",
        "coordinates": [
          -66.84348699885992,
          4.295598442972404
        ]
      }
    },
    {
      "type": "Feature",
      "properties": {
        "norad_id": 29079,
        "name": "EROS B",
        "group": "resource",
        "lat": -55.71667663959949,
        "lon": -90.4852235722706,
        "alt_km": 373.52068199117366,
        "timestamp": "2025-12-09T23:33:23.505658+00:00",
        "meta_object_name": "EROS B",
        "meta_object_id": "2006-014A",
        "meta_epoch": "2025-12-09T14:53:16.528416",
        "meta_mean_motion": 15.66972859,
        "meta_eccentricity": 0.00016472,
        "meta_inclination": 97.3476,
        "meta_ra_of_asc_node": 100.0482,
        "meta_arg_of_pericenter": 285.3806,
        "meta_mean_anomaly": 74.7273,
        "meta_ephemeris_type": 0,
        "meta_classification_type": "U",
        "meta_norad_cat_id": 29079,
        "meta_element_set_no": 999,
        "meta_rev_at_epoch": 9031,
        "meta_bstar": 0.0017614011,
        "meta_mean_motion_dot": 0.00190727,
        "meta_mean_motion_ddot": 0,
        "tle_line1": "1 29079U 06014A   25343.62033019  .00190727  00000+0  17614-2 0  9995",
        "tle_line2": "2 29079  97.3476 100.0482 0001647 285.3806  74.7273 15.66972859 90311"
      },
      "geometry": {
        "type": "Point",
        "coordinates": [
          -90.4852235722706,
          -55.71667663959949
        ]
      }
    },
    {
      "type": "Feature",
      "properties": {
        "norad_id": 29228,
        "name": "RESURS-DK 1",
        "group": "resource",
        "lat": -22.453118305285493,
        "lon": 100.27829294704165,
        "alt_km": 533.1392760092986,
        "timestamp": "2025-12-09T23:33:23.505669+00:00",
        "meta_object_name": "RESURS-DK 1",
        "meta_object_id": "2006-021A",
        "meta_epoch": "2025-12-09T12:32:56.666112",
        "meta_mean_motion": 15.12133903,
        "meta_eccentricity": 0.00075461,
        "meta_inclination": 69.9337,
        "meta_ra_of_asc_node": 110.1512,
        "meta_arg_of_pericenter": 262.0089,
        "meta_mean_anomaly": 98.022,
        "meta_ephemeris_type": 0,
        "meta_classification_type": "U",
        "meta_norad_cat_id": 29228,
        "meta_element_set_no": 999,
        "meta_rev_at_epoch": 7389,
        "meta_bstar": 0.00026304844,
        "meta_mean_motion_dot": 4.441e-05,
        "meta_mean_motion_ddot": 0,
        "tle_line1": "1 29228U 06021A   25343.52287808  .00004441  00000+0  26305-3 0  9990",
        "tle_line2": "2 29228  69.9337 110.1512 0007546 262.0089  98.0220 15.12133903 73898"
      },
      "geometry": {
        "type": "Point",
        "coordinates": [
          100.27829294704165,
          -22.453118305285493
        ]
      }
    }
  ]
}